TRANSPORTER-11 OBJECT A 
1 60468U 24149A   26068.74646182  .00010774  00000+0  36054-3 0  9993
2 60468  97.3780 149.0949 0003110 191.0010 169.1164 15.31141332 86830
STARLINK-34288          
1 64673U 25139K   26068.55074838  .00026758  00000+0  91259-3 0  9994
2 64673  53.1606 127.6292 0001552  69.0226 291.0941 15.30189984 40262
